COSMOS 2433 (720)       
1 32275U 07052A   22084.25456770 -.00000076  00000+0  00000+0 0  9997
2 32275  66.0835   7.4635 0003526 282.7927 183.3825  2.13104148112173
COSMOS 2432 (719)       
1 32276U 07052B   22083.85039617 -.00000073  00000+0  00000+0 0  9997
2 32276  66.0966   7.5761 0011928 328.9370 135.7117  2.13103543112162
COSMOS 2434 (721)       
1 32393U 07065A   22084.37063094  .00000061  00000+0  00000+0 0  9991
2 32393  64.4007 244.2951 0004954  78.3397   6.1351  2.13103186110888
COSMOS 2436 (723)       
1 32395U 07065C   22084.11167838  .00000063  00000+0  00000+0 0  9998
2 32395  64.4090 244.3602 0016348   8.1489  13.5921  2.13103074110813
COSMOS 2456 (730)       
1 36111U 09070A   22084.00594663  .00000037  00000+0  00000+0 0  9995
2 36111  64.3311 123.9542 0005266 300.1314  31.3096  2.13099225 95536
COSMOS 2457 (733)       
1 36112U 09070B   22084.04237757  .00000037  00000+0  00000+0 0  9998
2 36112  64.3136 123.8310 0004748 188.2151 297.7972  2.13101396 95547
COSMOS 2461 (735)       
1 36401U 10007B   22084.22470037 -.00000076  00000+0  00000+0 0  9995
2 36401  65.9708   6.3143 0022012   4.0516 296.7156  2.13103857 93896
COSMOS 2460 (732)       
1 36402U 10007C   22084.29068324 -.00000077  00000+0  00000+0 0  9996
2 36402  65.9580   6.2639 0002138 341.9025 317.1113  2.13106504 93892
COSMOS 2464 (736)       
1 37139U 10041C   22083.97821995  .00000063  00000+0  00000+0 0  9991
2 37139  64.0003 243.4261 0030034  14.2853 348.0021  2.13100808 89955
COSMOS 2476 (744)       
1 37867U 11064A   22084.40145991  .00000038  00000+0  00000+0 0  9991
2 37867  64.6208 125.2641 0022767 239.2068 300.4443  2.13101905 80899
COSMOS 2477 (745)       
1 37868U 11064B   22083.87185983  .00000036  00000+0  00000+0 0  9995
2 37868  64.6286 125.3455 0020083 240.5128  71.0072  2.13101729 80838
COSMOS 2475 (743)       
1 37869U 11064C   22084.11461432  .00000037  00000+0  00000+0 0  9991
2 37869  64.6356 125.3446 0024453 257.4140 198.2686  2.13101919 80859
COSMOS 2485 (747)       
1 39155U 13019A   22084.06939472  .00000037  00000+0  00000+0 0  9991
2 39155  64.7847 125.6856 0023150 235.3328  93.9728  2.13101909 69358
COSMOS 2492 (754)       
1 39620U 14012A   22084.19757801 -.00000076  00000+0  00000+0 0  9994
2 39620  65.8443   5.9604 0014944 325.5602 136.6450  2.13103285 62313
COSMOS 2500 (755)       
1 40001U 14032A   22084.15424455 -.00000076  00000+0  00000+0 0  9993
2 40001  65.7842   5.8292 0005114 221.7024  66.1457  2.13102522 60524
COSMOS 2501 (702K)      
1 40315U 14075A   22083.55836465  .00000065  00000+0  00000+0 0  9996
2 40315  63.7085 244.1421 0016458 205.1066 153.1793  2.13101460 56914
COSMOS 2514 (751)       
1 41330U 16008A   22084.25307877 -.00000077  00000+0  00000+0 0  9994
2 41330  65.5846   5.5391 0008879 223.5250 323.8208  2.13102879 47696
COSMOS 2516 (753)       
1 41554U 16032A   22084.18109917  .00000061  00000+0  00000+0 0  9998
2 41554  63.9338 244.3725 0012325 210.9244 182.2570  2.13106232 45302
COSMOS 2522 (752)       
1 42939U 17055A   22084.14352869  .00000063  00000+0  00000+0 0  9996
2 42939  64.1683 244.7440 0005073 241.6053 340.9354  2.13101988 35052
COSMOS 2527 (756)       
1 43508U 18053A   22084.50075321  .00000038  00000+0  00000+0 0  9995
2 43508  64.9484 125.6531 0009315 237.9315 290.7636  2.13102578 29359
COSMOS 2529 (757)       
1 43687U 18086A   22084.21228314  .00000063  00000+0  00000+0 0  9997
2 43687  64.3826 245.0353 0007288 274.3614 316.4384  2.13102182 26369
COSMOS 2534 (758)       
1 44299U 19030A   22083.83695829  .00000066  00000+0  00000+0 0  9996
2 44299  64.4547 244.9251 0010488 296.8950 140.5919  2.13102103 22003
COSMOS 2544 (759)       
1 44850U 19088A   22084.31463088  .00000038  00000+0  00000+0 0  9995
2 44850  64.9337 125.5130 0013933 261.3721 168.0715  2.13102423 17782
COSMOS 2545 (760)       
1 45358U 20018A   22084.17913507 -.00000077  00000+0  00000+0 0  9998
2 45358  64.9217   6.2178 0009207 261.7813 273.3147  2.13102797 15731
COSMOS 2547 (705K)      
1 46805U 20075A   22083.84857336  .00000066  00000+0  00000+0 0  9996
2 46805  64.6776 244.3238 0005217 245.5310 248.2571  2.13103161 10976
